OBJECT_NAME,OBJECT_ID,EPOCH,MEAN_MOTION,ECCENTRICITY,INCLINATION,RA_OF_ASC_NODE,ARG_OF_PERICENTER,MEAN_ANOMALY,EPHEMERIS_TYPE,CLASSIFICATION_TYPE,NORAD_CAT_ID,ELEMENT_SET_NO,REV_AT_EPOCH,BSTAR,MEAN_MOTION_DOT,MEAN_MOTION_DDOT
IONOSFERA-M 2,2024-199B,2026-07-20T13:29:53.889792,14.22763137,.00007067,98.7126,74.2857,130.7554,229.3685,0,U,61736,999,13557,.20129388E-4,.1E-7,0
PRSC-EO1,2025-012A,2026-07-20T14:52:12.415296,15.17659640,.00071462,97.4207,273.4232,131.3625,228.8224,0,U,62725,999,8326,.20708669E-3,.4105E-4,0
BIOMASS,2025-090A,2026-07-20T12:19:44.229504,14.67536383,.00014427,98.0754,28.3438,90.1809,269.9561,0,U,63772,999,6557,.73818358E-4,.371E-5,0
GOSAT-GW (IBUKI GW),2025-141A,2026-07-20T14:22:39.129600,14.67554701,.00014304,98.0564,138.3734,86.4810,273.6558,0,U,64694,999,5674,.60819244E-4,.297E-5,0
IONOSFERA-M 3,2025-155A,2026-07-20T14:38:25.874016,14.21491362,.00024196,98.6044,162.6773,104.2519,255.8927,0,U,64876,999,5115,.25950654E-4,.14E-6,0
IONOSFERA-M 4,2025-155B,2026-07-20T15:28:31.195200,14.21493804,.0001894,98.6043,162.6283,94.0466,266.0928,0,U,64877,999,5115,.27047042E-4,.16E-6,0
MICROCARB,2025-156A,2026-07-20T04:04:52.035744,14.72888403,.00179969,98.0071,277.8021,155.3183,204.8890,0,U,64899,999,5282,.51611378E-4,.281E-5,0
CO3D 3,2025-156B,2026-07-20T13:26:05.402400,15.20195701,.00017263,97.4331,279.7734,90.4724,269.6709,0,U,64900,999,5460,.11724065E-3,.2471E-4,0
CO3D 4,2025-156C,2026-07-20T13:26:18.631104,15.20192398,.00018682,97.4336,279.7731,142.4125,217.7241,0,U,64901,999,5460,.78633784E-4,.1635E-4,0
CO3D 2,2025-156D,2026-07-20T12:38:17.759616,15.20201512,.0001178,97.4332,279.6393,92.0776,268.0594,0,U,64902,999,5459,.11103249E-3,.2337E-4,0
CO3D 1,2025-156E,2026-07-20T12:38:31.053984,15.20203530,.00013368,97.4331,279.6395,102.5352,257.6033,0,U,64903,999,5459,.11459938E-3,.2414E-4,0
PRSC-S1,2025-164A,2026-07-20T14:36:46.933056,15.06662965,.0007461,41.1302,99.5463,230.6794,129.3359,0,U,65055,999,5347,.19018195E-3,.2695E-4,0
SENTINEL-6B,2025-264A,2026-07-20T08:18:29.802528,12.80930279,.00078395,66.0411,66.3076,268.5239,91.4878,0,U,66514,999,3141,.18219047E-4,-.57E-6,0
CAS500-3,2025-274F,2026-07-20T08:37:29.590464,14.88390733,.00058387,97.7433,128.6560,23.4066,336.7416,0,U,66655,999,3508,.76276321E-4,.653E-5,0
CSG-3,2026-001A,2026-07-20T09:56:29.192064,14.82165425,.00014691,97.8898,24.5366,93.0499,267.0882,0,U,67304,999,2938,.2542272E-4,.15E-5,0
PRSC-E03,2026-092A,2026-07-20T10:57:30.044736,15.06821808,.00050069,38.0004,253.4742,283.2867,76.7337,0,U,68835,999,1297,.77984655E-4,.1074E-4,0
CAS500-2,2026-100AK,2026-07-20T06:02:11.244192,15.19756868,.00080868,97.3849,98.4689,232.6309,127.4190,0,U,69013,999,1183,.1499387E-3,.3141E-4,0
